[
    {
        "Altitude(m)": 557534.7321755167,
        "Argument of Periapsis(deg)": 0.019868973332140504,
        "Eccentricity": 0.0,
        "Inclination(deg)": 53.0,
        "Latitude(deg)": -15.534027277145595,
        "Longitude(deg)": -155.3567968940806,
        "Mean Anomaly(deg)": 199.36577860273277,
        "RAAN(deg)": 114.97043010558406,
        "Satellite Name": "Starlink Shell 1 516",
        "Satellite Number": 516,
        "Semi-Major Axis(m)": 6931778.249405717,
        "Time(s)": 570
    },
    {
        "Altitude(m)": 557677.5139790301,
        "Argument of Periapsis(deg)": 0.02021755181165174,
        "Eccentricity": 0.0,
        "Inclination(deg)": 53.0,
        "Latitude(deg)": -16.025781654199434,
        "Longitude(deg)": -154.99188920720755,
        "Mean Anomaly(deg)": 199.99260980628947,
        "RAAN(deg)": 114.96991133550657,
        "Satellite Name": "Starlink Shell 1 516",
        "Satellite Number": 516,
        "Semi-Major Axis(m)": 6931778.249405717,
        "Time(s)": 580
    },
    {
        "Altitude(m)": 557822.1749400639,
        "Argument of Periapsis(deg)": 0.020566130291162974,
        "Eccentricity": 0.0,
        "Inclination(deg)": 53.0,
        "Latitude(deg)": -16.51672708094683,
        "Longitude(deg)": -154.62500125287474,
        "Mean Anomaly(deg)": 200.61944100984624,
        "RAAN(deg)": 114.96939256542909,
        "Satellite Name": "Starlink Shell 1 516",
        "Satellite Number": 516,
        "Semi-Major Axis(m)": 6931778.249405717,
        "Time(s)": 590
    },
    {
        "Altitude(m)": 557968.6673581745,
        "Argument of Periapsis(deg)": 0.020914708770674213,
        "Eccentricity": 0.0,
        "Inclination(deg)": 53.0,
        "Latitude(deg)": -17.006834075627907,
        "Longitude(deg)": -154.25606207291986,
        "Mean Anomaly(deg)": 201.24627221340296,
        "RAAN(deg)": 114.96887379535164,
        "Satellite Name": "Starlink Shell 1 516",
        "Satellite Number": 516,
        "Semi-Major Axis(m)": 6931778.249405717,
        "Time(s)": 600
    },
    {
        "Altitude(m)": 558116.9425680802,
        "Argument of Periapsis(deg)": 0.021263287250185448,
        "Eccentricity": 0.0,
        "Inclination(deg)": 53.0,
        "Latitude(deg)": -17.496072706225856,
        "Longitude(deg)": -153.88499985515898,
        "Mean Anomaly(deg)": 201.87310341695965,
        "RAAN(deg)": 114.96835502527414,
        "Satellite Name": "Starlink Shell 1 516",
        "Satellite Number": 516,
        "Semi-Major Axis(m)": 6931778.249405717,
        "Time(s)": 610
    },
    {
        "Altitude(m)": 558266.9509610985,
        "Argument of Periapsis(deg)": 0.021611865729696686,
        "Eccentricity": 0.0,
        "Inclination(deg)": 53.0,
        "Latitude(deg)": -17.98441257232128,
        "Longitude(deg)": -153.5117414027681,
        "Mean Anomaly(deg)": 202.49993462051637,
        "RAAN(deg)": 114.96783625519669,
        "Satellite Name": "Starlink Shell 1 516",
        "Satellite Number": 516,
        "Semi-Major Axis(m)": 6931778.249405717,
        "Time(s)": 620
    },
    {
        "Altitude(m)": 558418.6420070458,
        "Argument of Periapsis(deg)": 0.02196044420920792,
        "Eccentricity": 0.0,
        "Inclination(deg)": 53.0,
        "Latitude(deg)": -18.47182278654139,
        "Longitude(deg)": -153.13621328480463,
        "Mean Anomaly(deg)": 203.12676582407303,
        "RAAN(deg)": 114.96731748511921,
        "Satellite Name": "Starlink Shell 1 516",
        "Satellite Number": 516,
        "Semi-Major Axis(m)": 6931778.249405717,
        "Time(s)": 630
    },
    {
        "Altitude(m)": 558571.9642765776,
        "Argument of Periapsis(deg)": 0.02230902268871916,
        "Eccentricity": 0.0,
        "Inclination(deg)": 53.0,
        "Latitude(deg)": -18.95827195560275,
        "Longitude(deg)": -152.75834046547837,
        "Mean Anomaly(deg)": 203.75359702762984,
        "RAAN(deg)": 114.96679871504173,
        "Satellite Name": "Starlink Shell 1 516",
        "Satellite Number": 516,
        "Semi-Major Axis(m)": 6931778.249405717,
        "Time(s)": 640
    },
    {
        "Altitude(m)": 558726.8654639613,
        "Argument of Periapsis(deg)": 0.022657601168230398,
        "Eccentricity": 0.0,
        "Inclination(deg)": 53.0,
        "Latitude(deg)": -19.44372816092374,
        "Longitude(deg)": -152.3780474551316,
        "Mean Anomaly(deg)": 204.38042823118653,
        "RAAN(deg)": 114.96627994496426,
        "Satellite Name": "Starlink Shell 1 516",
        "Satellite Number": 516,
        "Semi-Major Axis(m)": 6931778.249405717,
        "Time(s)": 650
    },
    {
        "Altitude(m)": 558883.2924102889,
        "Argument of Periapsis(deg)": 0.023006179647741636,
        "Eccentricity": 0.0,
        "Inclination(deg)": 53.0,
        "Latitude(deg)": -19.92815893880655,
        "Longitude(deg)": -151.99525778054593,
        "Mean Anomaly(deg)": 205.00725943474322,
        "RAAN(deg)": 114.96576117488681,
        "Satellite Name": "Starlink Shell 1 516",
        "Satellite Number": 516,
        "Semi-Major Axis(m)": 6931778.249405717,
        "Time(s)": 660
    },
    {
        "Altitude(m)": 559041.1911270921,
        "Argument of Periapsis(deg)": 0.023354758127252868,
        "Eccentricity": 0.0,
        "Inclination(deg)": 53.0,
        "Latitude(deg)": -20.411531260172335,
        "Longitude(deg)": -151.609893455602,
        "Mean Anomaly(deg)": 205.63409063829985,
        "RAAN(deg)": 114.9652424048093,
        "Satellite Name": "Starlink Shell 1 516",
        "Satellite Number": 516,
        "Semi-Major Axis(m)": 6931778.249405717,
        "Time(s)": 670
    },
    {
        "Altitude(m)": 559200.5068203481,
        "Argument of Periapsis(deg)": 0.023703336606764106,
        "Eccentricity": 0.0,
        "Inclination(deg)": 53.0,
        "Latitude(deg)": -20.89381150983809,
        "Longitude(deg)": -151.22187596522207,
        "Mean Anomaly(deg)": 206.26092184185663,
        "RAAN(deg)": 114.96472363473185,
        "Satellite Name": "Starlink Shell 1 516",
        "Satellite Number": 516,
        "Semi-Major Axis(m)": 6931778.249405717,
        "Time(s)": 680
    },
    {
        "Altitude(m)": 559361.1839148931,
        "Argument of Periapsis(deg)": 0.024051915086275345,
        "Eccentricity": 0.0,
        "Inclination(deg)": 53.0,
        "Latitude(deg)": -21.374965465329954,
        "Longitude(deg)": -150.83112573691295,
        "Mean Anomaly(deg)": 206.88775304541343,
        "RAAN(deg)": 114.96420486465438,
        "Satellite Name": "Starlink Shell 1 516",
        "Satellite Number": 516,
        "Semi-Major Axis(m)": 6931778.249405717,
        "Time(s)": 690
    },
    {
        "Altitude(m)": 559523.1660791673,
        "Argument of Periapsis(deg)": 0.024400493565786583,
        "Eccentricity": 0.0,
        "Inclination(deg)": 53.0,
        "Latitude(deg)": -21.85495827522134,
        "Longitude(deg)": -150.4375616128504,
        "Mean Anomaly(deg)": 207.51458424897004,
        "RAAN(deg)": 114.9636860945769,
        "Satellite Name": "Starlink Shell 1 516",
        "Satellite Number": 516,
        "Semi-Major Axis(m)": 6931778.249405717,
        "Time(s)": 700
    },
    {
        "Altitude(m)": 559686.3962503873,
        "Argument of Periapsis(deg)": 0.024749072045297815,
        "Eccentricity": 0.0,
        "Inclination(deg)": 53.0,
        "Latitude(deg)": -22.333754436984485,
        "Longitude(deg)": -150.04110183545635,
        "Mean Anomaly(deg)": 208.14141545252676,
        "RAAN(deg)": 114.96316732449942,
        "Satellite Name": "Starlink Shell 1 516",
        "Satellite Number": 516,
        "Semi-Major Axis(m)": 6931778.249405717,
        "Time(s)": 710
    },
    {
        "Altitude(m)": 559850.8166600073,
        "Argument of Periapsis(deg)": 0.025097650524809053,
        "Eccentricity": 0.0,
        "Inclination(deg)": 53.0,
        "Latitude(deg)": -22.811317774352453,
        "Longitude(deg)": -149.64166352080142,
        "Mean Anomaly(deg)": 208.76824665608345,
        "RAAN(deg)": 114.96264855442197,
        "Satellite Name": "Starlink Shell 1 516",
        "Satellite Number": 516,
        "Semi-Major Axis(m)": 6931778.249405717,
        "Time(s)": 720
    },
    {
        "Altitude(m)": 560016.3688595351,
        "Argument of Periapsis(deg)": 0.02544622900432029,
        "Eccentricity": 0.0,
        "Inclination(deg)": 53.0,
        "Latitude(deg)": -23.28761141418222,
        "Longitude(deg)": -149.23916213279728,
        "Mean Anomaly(deg)": 209.39507785964025,
        "RAAN(deg)": 114.96212978434447,
        "Satellite Name": "Starlink Shell 1 516",
        "Satellite Number": 516,
        "Semi-Major Axis(m)": 6931778.249405717,
        "Time(s)": 730
    },
    {
        "Altitude(m)": 560182.9937466849,
        "Argument of Periapsis(deg)": 0.02579480748383153,
        "Eccentricity": 0.0,
        "Inclination(deg)": 53.0,
        "Latitude(deg)": -23.76259776280937,
        "Longitude(deg)": -148.8335124711485,
        "Mean Anomaly(deg)": 210.02190906319694,
        "RAAN(deg)": 114.96161101426702,
        "Satellite Name": "Starlink Shell 1 516",
        "Satellite Number": 516,
        "Semi-Major Axis(m)": 6931778.249405717,
        "Time(s)": 740
    },
    {
        "Altitude(m)": 560350.631591821,
        "Argument of Periapsis(deg)": 0.026143385963342765,
        "Eccentricity": 0.0,
        "Inclination(deg)": 53.0,
        "Latitude(deg)": -24.236238481894958,
        "Longitude(deg)": -148.42462814742132,
        "Mean Anomaly(deg)": 210.64874026675363,
        "RAAN(deg)": 114.96109224418954,
        "Satellite Name": "Starlink Shell 1 516",
        "Satellite Number": 516,
        "Semi-Major Axis(m)": 6931778.249405717,
        "Time(s)": 750
    }
]